{
  "type": "FeatureCollection",
  "features": [
    {
      "type": "Feature",
      "properties": {
        "norad_id": 29486,
        "name": "GPS BIIRM-2 (PRN 31)",
        "group": "gps-ops",
        "lat": -15.36986454903041,
        "lon": 147.24587791654298,
        "alt_km": 20090.103166943783,
        "timestamp": "2025-12-18T23:35:49.318572+00:00",
        "meta_object_name": "GPS BIIRM-2 (PRN 31)",
        "meta_object_id": "2006-042A",
        "meta_epoch": "2025-12-18T13:15:57.668256",
        "meta_mean_motion": 2.00553965,
        "meta_eccentricity": 0.01073199,
        "meta_inclination": 54.6948,
        "meta_ra_of_asc_node": 158.5101,
        "meta_arg_of_pericenter": 52.102,
        "meta_mean_anomaly": 339.2959,
        "meta_ephemeris_type": 0,
        "meta_classification_type": "U",
        "meta_norad_cat_id": 29486,
        "meta_element_set_no": 999,
        "meta_rev_at_epoch": 14077,
        "meta_bstar": 0,
        "meta_mean_motion_dot": 7.3e-07,
        "meta_mean_motion_ddot": 0,
        "tle_line1": "1 29486U 06042A   25352.55275079  .00000073  00000+0  00000+0 0  9996",
        "tle_line2": "2 29486  54.6948 158.5101 0107319  52.1020 339.2959  2.00553965140773"
      },
      "geometry": {
        "type": "Point",
        "coordinates": [
          147.24587791654298,
          -15.36986454903041
        ]
      }
    },
    {
      "type": "Feature",
      "properties": {
        "norad_id": 29601,
        "name": "GPS BIIRM-3 (PRN 12)",
        "group": "gps-ops",
        "lat": 31.362176949039483,
        "lon": -113.53982669735325,
        "alt_km": 20020.301429567557,
        "timestamp": "2025-12-18T23:35:49.318584+00:00",
        "meta_object_name": "GPS BIIRM-3 (PRN 12)",
        "meta_object_id": "2006-052A",
        "meta_epoch": "2025-12-17T22:21:49.009536",
        "meta_mean_motion": 2.00574024,
        "meta_eccentricity": 0.00876985,
        "meta_inclination": 54.9696,
        "meta_ra_of_asc_node": 221.1922,
        "meta_arg_of_pericenter": 87.4131,
        "meta_mean_anomaly": 273.6858,
        "meta_ephemeris_type": 0,
        "meta_classification_type": "U",
        "meta_norad_cat_id": 29601,
        "meta_element_set_no": 999,
        "meta_rev_at_epoch": 13977,
        "meta_bstar": 0,
        "meta_mean_motion_dot": 7.5e-07,
        "meta_mean_motion_ddot": 0,
        "tle_line1": "1 29601U 06052A   25351.93181724  .00000075  00000+0  00000+0 0  9992",
        "tle_line2": "2 29601  54.9696 221.1922 0087698  87.4131 273.6858  2.00574024139770"
      },
      "geometry": {
        "type": "Point",
        "coordinates": [
          -113.53982669735325,
          31.362176949039483
        ]
      }
    },
    {
      "type": "Feature",
      "properties": {
        "norad_id": 32260,
        "name": "GPS BIIRM-4 (PRN 15)",
        "group": "gps-ops",
        "lat": -1.610330946887126,
        "lon": -91.32654360487942,
        "alt_km": 20226.245931985166,
        "timestamp": "2025-12-18T23:35:49.318597+00:00",
        "meta_object_name": "GPS BIIRM-4 (PRN 15)",
        "meta_object_id": "2007-047A",
        "meta_epoch": "2025-12-18T05:42:28.689120",
        "meta_mean_motion": 2.0056436,
        "meta_eccentricity": 0.01640962,
        "meta_inclination": 53.959,
        "meta_ra_of_asc_node": 87.5314,
        "meta_arg_of_pericenter": 85.3192,
        "meta_mean_anomaly": 276.5459,
        "meta_ephemeris_type": 0,
        "meta_classification_type": "U",
        "meta_norad_cat_id": 32260,
        "meta_element_set_no": 999,
        "meta_rev_at_epoch": 13318,
        "meta_bstar": 0,
        "meta_mean_motion_dot": -4.8e-07,
        "meta_mean_motion_ddot": 0,
        "tle_line1": "1 32260U 07047A   25352.23783205 -.00000048  00000+0  00000+0 0  9999",
        "tle_line2": "2 32260  53.9590  87.5314 0164096  85.3192 276.5459  2.00564360133188"
      },
      "geometry": {
        "type": "Point",
        "coordinates": [
          -91.32654360487942,
          -1.610330946887126
        ]
      }
    },
    {
      "type": "Feature",
      "properties": {
        "norad_id": 32384,
        "name": "GPS BIIRM-5 (PRN 29)",
        "group": "gps-ops",
        "lat": -39.15208501428494,
        "lon": -113.08552695996639,
        "alt_km": 20257.98045163896,
        "timestamp": "2025-12-18T23:35:49.318609+00:00",
        "meta_object_name": "GPS BIIRM-5 (PRN 29)",
        "meta_object_id": "2007-062A",
        "meta_epoch": "2025-12-18T07:01:45.411744",
        "meta_mean_motion": 2.00577672,
        "meta_eccentricity": 0.00322611,
        "meta_inclination": 55.1773,
        "meta_ra_of_asc_node": 281.4232,
        "meta_arg_of_pericenter": 162.2435,
        "meta_mean_anomaly": 8.8287,
        "meta_ephemeris_type": 0,
        "meta_classification_type": "U",
        "meta_norad_cat_id": 32384,
        "meta_element_set_no": 999,
        "meta_rev_at_epoch": 13188,
        "meta_bstar": 0,
        "meta_mean_motion_dot": -4.6e-07,
        "meta_mean_motion_ddot": 0,
        "tle_line1": "1 32384U 07062A   25352.29288671 -.00000046  00000+0  00000+0 0  9994",
        "tle_line2": "2 32384  55.1773 281.4232 0032261 162.2435   8.8287  2.00577672131889"
      },
      "geometry": {
        "type": "Point",
        "coordinates": [
          -113.08552695996639,
          -39.15208501428494
        ]
      }
    },
    {
      "type": "Feature",
      "properties": {
        "norad_id": 32711,
        "name": "GPS BIIRM-6 (PRN 07)",
        "group": "gps-ops",
        "lat": -40.68798658894831,
        "lon": 15.02618928114422,
        "alt_km": 19659.675553939876,
        "timestamp": "2025-12-18T23:35:49.318620+00:00",
        "meta_object_name": "GPS BIIRM-6 (PRN 07)",
        "meta_object_id": "2008-012A",
        "meta_epoch": "2025-12-17T15:49:41.763360",
        "meta_mean_motion": 2.00565887,
        "meta_eccentricity": 0.02026439,
        "meta_inclination": 54.4776,
        "meta_ra_of_asc_node": 157.1765,
        "meta_arg_of_pericenter": 245.0018,
        "meta_mean_anomaly": 112.8836,
        "meta_ephemeris_type": 0,
        "meta_classification_type": "U",
        "meta_norad_cat_id": 32711,
        "meta_element_set_no": 999,
        "meta_rev_at_epoch": 13011,
        "meta_bstar": 0,
        "meta_mean_motion_dot": 7.7e-07,
        "meta_mean_motion_ddot": 0,
        "tle_line1": "1 32711U 08012A   25351.65951115  .00000077  00000+0  00000+0 0  9996",
        "tle_line2": "2 32711  54.4776 157.1765 0202643 245.0018 112.8836  2.00565887130114"
      },
      "geometry": {
        "type": "Point",
        "coordinates": [
          15.02618928114422,
          -40.68798658894831
        ]
      }
    },
    {
      "type": "Feature",
      "properties": {
        "norad_id": 35752,
        "name": "GPS BIIRM-8 (PRN 05)",
        "group": "gps-ops",
        "lat": -52.794931342080076,
        "lon": -83.15750309734521,
        "alt_km": 20323.903690555926,
        "timestamp": "2025-12-18T23:35:49.318632+00:00",
        "meta_object_name": "GPS BIIRM-8 (PRN 05)",
        "meta_object_id": "2009-043A",
        "meta_epoch": "2025-12-18T04:21:14.473728",
        "meta_mean_motion": 2.00565462,
        "meta_eccentricity": 0.00516833,
        "meta_inclination": 56.0947,
        "meta_ra_of_asc_node": 34.5684,
        "meta_arg_of_pericenter": 81.8123,
        "meta_mean_anomaly": 312.8651,
        "meta_ephemeris_type": 0,
        "meta_classification_type": "U",
        "meta_norad_cat_id": 35752,
        "meta_element_set_no": 999,
        "meta_rev_at_epoch": 11973,
        "meta_bstar": 0,
        "meta_mean_motion_dot": -7.2e-07,
        "meta_mean_motion_ddot": 0,
        "tle_line1": "1 35752U 09043A   25352.18141752 -.00000072  00000+0  00000+0 0  9992",
        "tle_line2": "2 35752  56.0947  34.5684 0051683  81.8123 312.8651  2.00565462119738"
      },
      "geometry": {
        "type": "Point",
        "coordinates": [
          -83.15750309734521,
          -52.794931342080076
        ]
      }
    },
    {
      "type": "Feature",
      "properties": {
        "norad_id": 36585,
        "name": "GPS BIIF-1  (PRN 25)",
        "group": "gps-ops",
        "lat": 8.518771242485666,
        "lon": -137.98392494901495,
        "alt_km": 19984.81025487895,
        "timestamp": "2025-12-18T23:35:49.318644+00:00",
        "meta_object_name": "GPS BIIF-1  (PRN 25)",
        "meta_object_id": "2010-022A",
        "meta_epoch": "2025-12-18T05:21:58.347936",
        "meta_mean_motion": 2.00553561,
        "meta_eccentricity": 0.01263418,
        "meta_inclination": 54.2992,
        "meta_ra_of_asc_node": 215.8527,
        "meta_arg_of_pericenter": 65.143,
        "meta_mean_anomaly": 118.1807,
        "meta_ephemeris_type": 0,
        "meta_classification_type": "U",
        "meta_norad_cat_id": 36585,
        "meta_element_set_no": 999,
        "meta_rev_at_epoch": 11396,
        "meta_bstar": 0,
        "meta_mean_motion_dot": 8.3e-07,
        "meta_mean_motion_ddot": 0,
        "tle_line1": "1 36585U 10022A   25352.22359199  .00000083  00000+0  00000+0 0  9998",
        "tle_line2": "2 36585  54.2992 215.8527 0126341  65.1430 118.1807  2.00553561113969"
      },
      "geometry": {
        "type": "Point",
        "coordinates": [
          -137.98392494901495,
          8.518771242485666
        ]
      }
    }
  ]
}